{
    "links": {
        "self": "http://www.neowsapp.com/rest/v1/neo/3789601?api_key=iIulBulltgU6a56xZRHN4H3l9WmuAYTsLGpBGhQ2"
    },
    "id": "3789601",
    "neo_reference_id": "3789601",
    "name": "(2017 WQ12)",
    "designation": "2017 WQ12",
    "nasa_jpl_url": "http://ssd.jpl.nasa.gov/sbdb.cgi?sstr=3789601",
    "absolute_magnitude_h": 25.3,
    "estimated_diameter": {
        "kilometers": {
            "estimated_diameter_min": 0.0231502122,
            "estimated_diameter_max": 0.0517654482
        },
        "meters": {
            "estimated_diameter_min": 23.150212221,
            "estimated_diameter_max": 51.7654482198
        },
        "miles": {
            "estimated_diameter_min": 0.0143848705,
            "estimated_diameter_max": 0.0321655483
        },
        "feet": {
            "estimated_diameter_min": 75.9521422633,
            "estimated_diameter_max": 169.8341531374
        }
    },
    "is_potentially_hazardous_asteroid": false,
    "close_approach_data": [
        {
            "close_approach_date": "2017-11-01",
            "close_approach_date_full": "2017-Nov-01 18:36",
            "epoch_date_close_approach": 1509561360000,
            "relative_velocity": {
                "kilometers_per_second": "12.2753360989",
                "kilometers_per_hour": "44191.2099558877",
                "miles_per_hour": "27458.6993195348"
            },
            "miss_distance": {
                "astronomical": "0.0376155021",
                "lunar": "14.6324303169",
                "kilometers": "5627198.993140527",
                "miles": "3496579.3158001926"
            },
            "orbiting_body": "Earth"
        }
    ],
    "orbital_data": {
        "orbit_id": "2",
        "orbit_determination_date": "2017-11-28 06:49:06",
        "first_observation_date": "2017-11-18",
        "last_observation_date": "2017-11-27",
        "data_arc_in_days": 9,
        "observations_used": 13,
        "orbit_uncertainty": "8",
        "minimum_orbit_intersection": ".0374102",
        "jupiter_tisserand_invariant": "3.683",
        "epoch_osculation": "2458078.5",
        "eccentricity": ".5330013406797453",
        "semi_major_axis": "1.953549784683625",
        "inclination": "10.43302992663234",
        "ascending_node_longitude": "229.6361482323699",
        "orbital_period": "997.3214319206276",
        "perihelion_distance": ".9123051303626252",
        "perihelion_argument": "125.6859239012018",
        "aphelion_distance": "2.994794439004625",
        "perihelion_time": "2458025.565136659959",
        "mean_anomaly": "19.10773216385807",
        "mean_motion": ".3609668743473377",
        "equinox": "J2000",
        "orbit_class": {
            "orbit_class_type": "APO",
            "orbit_class_description": "Near-Earth asteroid orbits which cross the Earth’s orbit similar to that of 1862 Apollo",
            "orbit_class_range": "a (semi-major axis) > 1.0 AU; q (perihelion) < 1.017 AU"
        }
    },
    "is_sentry_object": false
}